<?xml version="1.0" encoding="UTF-8"?>
<ndm xmlns:xsi="http://www.w3.org/2001/XMLSchema-instance" xsi:noNamespaceSchemaLocation="https://sanaregistry.org/r/ndmxml_unqualified/ndmxml-2.0.0-master-2.0.xsd">
<omm id="CCSDS_OMM_VERS" version="2.0">
<header><CREATION_DATE/><ORIGINATOR/></header><body><segment><metadata><OBJECT_NAME>KUIPER-00035</OBJECT_NAME><OBJECT_ID>2025-088AA</OBJECT_ID><CENTER_NAME>EARTH</CENTER_NAME><REF_FRAME>TEME</REF_FRAME><TIME_SYSTEM>UTC</TIME_SYSTEM><MEAN_ELEMENT_THEORY>SGP4</MEAN_ELEMENT_THEORY></metadata><data><meanElements><EPOCH>2025-11-26T01:10:38.625024</EPOCH><MEAN_MOTION>14.79982244</MEAN_MOTION><ECCENTRICITY>.0007159</ECCENTRICITY><INCLINATION>51.8994</INCLINATION><RA_OF_ASC_NODE>212.4106</RA_OF_ASC_NODE><ARG_OF_PERICENTER>86.0999</ARG_OF_PERICENTER><MEAN_ANOMALY>274.0782</MEAN_ANOMALY></meanElements><tleParameters><EPHEMERIS_TYPE>0</EPHEMERIS_TYPE><CLASSIFICATION_TYPE>U</CLASSIFICATION_TYPE><NORAD_CAT_ID>63748</NORAD_CAT_ID><ELEMENT_SET_NO>999</ELEMENT_SET_NO><REV_AT_EPOCH>3216</REV_AT_EPOCH><BSTAR>.78422E-3</BSTAR><MEAN_MOTION_DOT>.577E-4</MEAN_MOTION_DOT><MEAN_MOTION_DDOT>0</MEAN_MOTION_DDOT></tleParameters></data></segment></body></omm>
<omm id="CCSDS_OMM_VERS" version="2.0">
<header><CREATION_DATE/><ORIGINATOR/></header><body><segment><metadata><OBJECT_NAME>KUIPER-00037</OBJECT_NAME><OBJECT_ID>2025-088AB</OBJECT_ID><CENTER_NAME>EARTH</CENTER_NAME><REF_FRAME>TEME</REF_FRAME><TIME_SYSTEM>UTC</TIME_SYSTEM><MEAN_ELEMENT_THEORY>SGP4</MEAN_ELEMENT_THEORY></metadata><data><meanElements><EPOCH>2025-11-26T02:46:07.499712</EPOCH><MEAN_MOTION>14.80195356</MEAN_MOTION><ECCENTRICITY>.0008661</ECCENTRICITY><INCLINATION>51.8980</INCLINATION><RA_OF_ASC_NODE>211.0371</RA_OF_ASC_NODE><ARG_OF_PERICENTER>41.9866</ARG_OF_PERICENTER><MEAN_ANOMALY>318.1759</MEAN_ANOMALY></meanElements><tleParameters><EPHEMERIS_TYPE>0</EPHEMERIS_TYPE><CLASSIFICATION_TYPE>U</CLASSIFICATION_TYPE><NORAD_CAT_ID>63749</NORAD_CAT_ID><ELEMENT_SET_NO>999</ELEMENT_SET_NO><REV_AT_EPOCH>3297</REV_AT_EPOCH><BSTAR>.44471E-3</BSTAR><MEAN_MOTION_DOT>.3191E-4</MEAN_MOTION_DOT><MEAN_MOTION_DDOT>0</MEAN_MOTION_DDOT></tleParameters></data></segment></body></omm>
<omm id="CCSDS_OMM_VERS" version="2.0">
<header><CREATION_DATE/><ORIGINATOR/></header><body><segment><metadata><OBJECT_NAME>KUIPER-00038</OBJECT_NAME><OBJECT_ID>2025-088AC</OBJECT_ID><CENTER_NAME>EARTH</CENTER_NAME><REF_FRAME>TEME</REF_FRAME><TIME_SYSTEM>UTC</TIME_SYSTEM><MEAN_ELEMENT_THEORY>SGP4</MEAN_ELEMENT_THEORY></metadata><data><meanElements><EPOCH>2025-11-25T23:59:02.467968</EPOCH><MEAN_MOTION>14.79965806</MEAN_MOTION><ECCENTRICITY>.0008173</ECCENTRICITY><INCLINATION>51.8994</INCLINATION><RA_OF_ASC_NODE>196.5955</RA_OF_ASC_NODE><ARG_OF_PERICENTER>89.2465</ARG_OF_PERICENTER><MEAN_ANOMALY>270.9434</MEAN_ANOMALY></meanElements><tleParameters><EPHEMERIS_TYPE>0</EPHEMERIS_TYPE><CLASSIFICATION_TYPE>U</CLASSIFICATION_TYPE><NORAD_CAT_ID>63750</NORAD_CAT_ID><ELEMENT_SET_NO>999</ELEMENT_SET_NO><REV_AT_EPOCH>3216</REV_AT_EPOCH><BSTAR>.52432E-3</BSTAR><MEAN_MOTION_DOT>.3781E-4</MEAN_MOTION_DOT><MEAN_MOTION_DDOT>0</MEAN_MOTION_DDOT></tleParameters></data></segment></body></omm>
<omm id="CCSDS_OMM_VERS" version="2.0">
<header><CREATION_DATE/><ORIGINATOR/></header><body><segment><metadata><OBJECT_NAME>KUIPER-00039</OBJECT_NAME><OBJECT_ID>2025-134A</OBJECT_ID><CENTER_NAME>EARTH</CENTER_NAME><REF_FRAME>TEME</REF_FRAME><TIME_SYSTEM>UTC</TIME_SYSTEM><MEAN_ELEMENT_THEORY>SGP4</MEAN_ELEMENT_THEORY></metadata><data><meanElements><EPOCH>2025-11-26T04:08:35.795328</EPOCH><MEAN_MOTION>14.80158932</MEAN_MOTION><ECCENTRICITY>.001143</ECCENTRICITY><INCLINATION>51.9012</INCLINATION><RA_OF_ASC_NODE>330.8122</RA_OF_ASC_NODE><ARG_OF_PERICENTER>312.1983</ARG_OF_PERICENTER><MEAN_ANOMALY>47.8008</MEAN_ANOMALY></meanElements><tleParameters><EPHEMERIS_TYPE>0</EPHEMERIS_TYPE><CLASSIFICATION_TYPE>U</CLASSIFICATION_TYPE><NORAD_CAT_ID>64500</NORAD_CAT_ID><ELEMENT_SET_NO>999</ELEMENT_SET_NO><REV_AT_EPOCH>2474</REV_AT_EPOCH><BSTAR>.69348E-3</BSTAR><MEAN_MOTION_DOT>.51E-4</MEAN_MOTION_DOT><MEAN_MOTION_DDOT>0</MEAN_MOTION_DDOT></tleParameters></data></segment></body></omm>
<omm id="CCSDS_OMM_VERS" version="2.0">
<header><CREATION_DATE/><ORIGINATOR/></header><body><segment><metadata><OBJECT_NAME>KUIPER-00040</OBJECT_NAME><OBJECT_ID>2025-134B</OBJECT_ID><CENTER_NAME>EARTH</CENTER_NAME><REF_FRAME>TEME</REF_FRAME><TIME_SYSTEM>UTC</TIME_SYSTEM><MEAN_ELEMENT_THEORY>SGP4</MEAN_ELEMENT_THEORY></metadata><data><meanElements><EPOCH>2025-11-26T02:16:04.404288</EPOCH><MEAN_MOTION>14.79894901</MEAN_MOTION><ECCENTRICITY>.0016988</ECCENTRICITY><INCLINATION>51.9007</INCLINATION><RA_OF_ASC_NODE>342.3359</RA_OF_ASC_NODE><ARG_OF_PERICENTER>286.5884</ARG_OF_PERICENTER><MEAN_ANOMALY>73.3213</MEAN_ANOMALY></meanElements><tleParameters><EPHEMERIS_TYPE>0</EPHEMERIS_TYPE><CLASSIFICATION_TYPE>U</CLASSIFICATION_TYPE><NORAD_CAT_ID>64501</NORAD_CAT_ID><ELEMENT_SET_NO>999</ELEMENT_SET_NO><REV_AT_EPOCH>2457</REV_AT_EPOCH><BSTAR>-.48571E-3</BSTAR><MEAN_MOTION_DOT>-.3932E-4</MEAN_MOTION_DOT><MEAN_MOTION_DDOT>0</MEAN_MOTION_DDOT></tleParameters></data></segment></body></omm>
<omm id="CCSDS_OMM_VERS" version="2.0">
<header><CREATION_DATE/><ORIGINATOR/></header><body><segment><metadata><OBJECT_NAME>KUIPER-00041</OBJECT_NAME><OBJECT_ID>2025-134C</OBJECT_ID><CENTER_NAME>EARTH</CENTER_NAME><REF_FRAME>TEME</REF_FRAME><TIME_SYSTEM>UTC</TIME_SYSTEM><MEAN_ELEMENT_THEORY>SGP4</MEAN_ELEMENT_THEORY></metadata><data><meanElements><EPOCH>2025-11-26T00:37:17.649408</EPOCH><MEAN_MOTION>14.79972089</MEAN_MOTION><ECCENTRICITY>.0013279</ECCENTRICITY><INCLINATION>51.8988</INCLINATION><RA_OF_ASC_NODE>343.9976</RA_OF_ASC_NODE><ARG_OF_PERICENTER>284.3657</ARG_OF_PERICENTER><MEAN_ANOMALY>75.5831</MEAN_ANOMALY></meanElements><tleParameters><EPHEMERIS_TYPE>0</EPHEMERIS_TYPE><CLASSIFICATION_TYPE>U</CLASSIFICATION_TYPE><NORAD_CAT_ID>64502</NORAD_CAT_ID><ELEMENT_SET_NO>999</ELEMENT_SET_NO><REV_AT_EPOCH>2454</REV_AT_EPOCH><BSTAR>.54767E-3</BSTAR><MEAN_MOTION_DOT>.3963E-4</MEAN_MOTION_DOT><MEAN_MOTION_DDOT>0</MEAN_MOTION_DDOT></tleParameters></data></segment></body></omm>
<omm id="CCSDS_OMM_VERS" version="2.0">
<header><CREATION_DATE/><ORIGINATOR/></header><body><segment><metadata><OBJECT_NAME>KUIPER-00042</OBJECT_NAME><OBJECT_ID>2025-134D</OBJECT_ID><CENTER_NAME>EARTH</CENTER_NAME><REF_FRAME>TEME</REF_FRAME><TIME_SYSTEM>UTC</TIME_SYSTEM><MEAN_ELEMENT_THEORY>SGP4</MEAN_ELEMENT_THEORY></metadata><data><meanElements><EPOCH>2025-11-26T00:42:36.734112</EPOCH><MEAN_MOTION>14.79850827</MEAN_MOTION><ECCENTRICITY>.0011985</ECCENTRICITY><INCLINATION>51.9002</INCLINATION><RA_OF_ASC_NODE>339.9806</RA_OF_ASC_NODE><ARG_OF_PERICENTER>289.9514</ARG_OF_PERICENTER><MEAN_ANOMALY>70.0157</MEAN_ANOMALY></meanElements><tleParameters><EPHEMERIS_TYPE>0</EPHEMERIS_TYPE><CLASSIFICATION_TYPE>U</CLASSIFICATION_TYPE><NORAD_CAT_ID>64503</NORAD_CAT_ID><ELEMENT_SET_NO>999</ELEMENT_SET_NO><REV_AT_EPOCH>2460</REV_AT_EPOCH><BSTAR>.13545E-1</BSTAR><MEAN_MOTION_DOT>.104553E-2</MEAN_MOTION_DOT><MEAN_MOTION_DDOT>0</MEAN_MOTION_DDOT></tleParameters></data></segment></body></omm>
<omm id="CCSDS_OMM_VERS" version="2.0">
<header><CREATION_DATE/><ORIGINATOR/></header><body><segment><metadata><OBJECT_NAME>KUIPER-00043</OBJECT_NAME><OBJECT_ID>2025-134E</OBJECT_ID><CENTER_NAME>EARTH</CENTER_NAME><REF_FRAME>TEME</REF_FRAME><TIME_SYSTEM>UTC</TIME_SYSTEM><MEAN_ELEMENT_THEORY>SGP4</MEAN_ELEMENT_THEORY></metadata><data><meanElements><EPOCH>2025-11-26T04:08:55.377024</EPOCH><MEAN_MOTION>14.79862318</MEAN_MOTION><ECCENTRICITY>.0003134</ECCENTRICITY><INCLINATION>51.9026</INCLINATION><RA_OF_ASC_NODE>331.7901</RA_OF_ASC_NODE><ARG_OF_PERICENTER>295.7075</ARG_OF_PERICENTER><MEAN_ANOMALY>64.3564</MEAN_ANOMALY></meanElements><tleParameters><EPHEMERIS_TYPE>0</EPHEMERIS_TYPE><CLASSIFICATION_TYPE>U</CLASSIFICATION_TYPE><NORAD_CAT_ID>64504</NORAD_CAT_ID><ELEMENT_SET_NO>999</ELEMENT_SET_NO><REV_AT_EPOCH>2473</REV_AT_EPOCH><BSTAR>.86637E-3</BSTAR><MEAN_MOTION_DOT>.6379E-4</MEAN_MOTION_DOT><MEAN_MOTION_DDOT>0</MEAN_MOTION_DDOT></tleParameters></data></segment></body></omm>

</ndm>
