KUIPER-00035            
1 63748U 25088AA  25330.04905816  .00005770  00000+0  78422-3 0  9991
2 63748  51.8994 212.4106 0007159  86.0999 274.0782 14.79982244 32167
KUIPER-00037            
1 63749U 25088AB  25330.11536458  .00003191  00000+0  44471-3 0  9994
2 63749  51.8980 211.0371 0008661  41.9866 318.1759 14.80195356 32979
KUIPER-00038            
1 63750U 25088AC  25329.99933412  .00003781  00000+0  52432-3 0  9992
2 63750  51.8994 196.5955 0008173  89.2465 270.9434 14.79965806 32168
KUIPER-00039            
1 64500U 25134A   25330.17263652  .00005100  00000+0  69348-3 0  9993
2 64500  51.9012 330.8122 0011430 312.1983  47.8008 14.80158932 24745
KUIPER-00040            
1 64501U 25134B   25330.09449542 -.00003932  00000+0 -48571-3 0  9997
2 64501  51.9007 342.3359 0016988 286.5884  73.3213 14.79894901 24571
KUIPER-00041            
1 64502U 25134C   25330.02589872  .00003963  00000+0  54767-3 0  9998
2 64502  51.8988 343.9976 0013279 284.3657  75.5831 14.79972089 24546
KUIPER-00042            
1 64503U 25134D   25330.02959183  .00104553  00000+0  13545-1 0  9999
2 64503  51.9002 339.9806 0011985 289.9514  70.0157 14.79850827 24600
KUIPER-00043            
1 64504U 25134E   25330.17286316  .00006379  00000+0  86637-3 0  9998
2 64504  51.9026 331.7901 0003134 295.7075  64.3564 14.79862318 24737
